NORAD_CAT_ID,OBJECT_NAME,OBJECT_TYPE,EPOCH,MEAN_MOTION,ECCENTRICITY,INCLINATION,RA_OF_ASC_NODE,ARG_OF_PERICENTER,MEAN_ANOMALY,BSTAR,MEAN_MOTION_DOT,MEAN_MOTION_DDOT,TLE_LINE0,TLE_LINE1,TLE_LINE2,SEMIMAJOR_AXIS,PERIOD,APOGEE,PERIGEE,DECAYED
49155.0,STARLINK-3060,PAYLOAD,2023-12-27 18:35:27,14.9840542,0.00024,70.0,118.8953,252.2285,107.8613,-0.0011606,-0.0001394,0.0,0 STARLINK-3060,1 49155U 21082AB  23361.77461953 -.00013940  00000-0 -11606-2 0  9999,2 49155  70.0000 118.8953 0002400 252.2285 107.8613 14.98405420127777,6949.96,96.102,573.493,570.157,0.0
49155.0,STARLINK-3060,PAYLOAD,2023-12-28 12:12:57,14.98339213,0.0002475,70.0006,117.0443,258.3918,101.6963,-0.00019443,-2.413e-05,0.0,0 STARLINK-3060,1 49155U 21082AB  23362.50900449 -.00002413  00000-0 -19443-3 0  9990,2 49155  70.0006 117.0443 0002475 258.3918 101.6963 14.98339213127888,6950.164,96.106,573.75,570.309,0.0
49155.0,STARLINK-3060,PAYLOAD,2023-12-28 13:49:06,14.98325788,0.0002515,70.0004,116.8758,258.3002,101.7875,1.0721e-05,3.5e-07,0.0,0 STARLINK-3060,1 49155U 21082AB  23362.57576767  .00000035  00000-0  10721-4 0  9996,2 49155  70.0004 116.8758 0002515 258.3002 101.7875 14.98325788127897,6950.206,96.107,573.819,570.323,0.0
49155.0,STARLINK-3060,PAYLOAD,2023-12-28 17:01:22,14.98335526,0.0002869,69.9996,116.5392,268.2789,91.8041,-0.00013574,-1.712e-05,0.0,0 STARLINK-3060,1 49155U 21082AB  23362.70928487 -.00001712  00000-0 -13574-3 0  9994,2 49155  69.9996 116.5392 0002869 268.2789  91.8041 14.98335526127917,6950.176,96.107,574.035,570.047,0.0
49155.0,STARLINK-3060,PAYLOAD,2023-12-29 13:51:07,14.98330352,0.0003105,69.9992,114.3499,272.7088,87.3715,-1.0942e-05,-2.24e-06,0.0,0 STARLINK-3060,1 49155U 21082AB  23363.57716562 -.00000224  00000-0 -10942-4 0  9993,2 49155  69.9992 114.3499 0003105 272.7088  87.3715 14.98330352128048,6950.192,96.107,574.215,569.899,0.0
49155.0,STARLINK-3060,PAYLOAD,2023-12-29 17:03:22,14.9833289,0.0003033,69.9997,114.0143,268.045,92.0362,6.1868e-05,6.45e-06,0.0,0 STARLINK-3060,1 49155U 21082AB  23363.71068155  .00000645  00000-0  61868-4 0  9995,2 49155  69.9997 114.0143 0003033 268.0450  92.0362 14.98332890128069,6950.184,96.107,574.157,569.941,0.0
49155.0,STARLINK-3060,PAYLOAD,2023-12-30 13:53:07,14.98331041,0.0003065,69.9994,111.8257,268.0614,92.0194,6.5294e-05,6.86e-06,0.0,0 STARLINK-3060,1 49155U 21082AB  23364.57856178  .00000686  00000-0  65294-4 0  9992,2 49155  69.9994 111.8257 0003065 268.0614  92.0194 14.98331041128198,6950.19,96.107,574.185,569.924,0.0
49155.0,STARLINK-3060,PAYLOAD,2023-12-30 17:05:23,14.98333956,0.0003038,69.9996,111.4893,267.6125,92.4686,9.5177e-05,1.043e-05,0.0,0 STARLINK-3060,1 49155U 21082AB  23364.71207890  .00001043  00000-0  95177-4 0  9990,2 49155  69.9996 111.4893 0003038 267.6125  92.4686 14.98333956128214,6950.181,96.107,574.157,569.934,0.0
49155.0,STARLINK-3060,PAYLOAD,2023-12-31 12:19:00,14.98328416,0.0002838,70.0001,109.4693,259.7319,100.352,-8.6025e-06,-1.96e-06,0.0,0 STARLINK-3060,1 49155U 21082AB  23365.51320471 -.00000196  00000-0 -86025-5 0  9993,2 49155  70.0001 109.4693 0002838 259.7319 100.3520 14.98328416128337,6950.198,96.107,574.035,570.09,0.0
49155.0,STARLINK-3060,PAYLOAD,2023-12-31 17:07:24,14.98330214,0.0002833,70.0,108.9643,260.1653,99.9186,1.0469e-05,3.2e-07,0.0,0 STARLINK-3060,1 49155U 21082AB  23365.71348297  .00000032  00000-0  10469-4 0  9996,2 49155  70.0000 108.9643 0002833 260.1653  99.9186 14.98330214128360,6950.192,96.107,574.026,570.088,0.0
49155.0,STARLINK-3060,PAYLOAD,2024-01-01 12:21:01,14.98331701,0.0002837,69.9996,106.9433,265.0261,95.0574,1.3221e-05,6.5e-07,0.0,0 STARLINK-3060,1 49155U 21082AB  24001.51460129  .00000065  00000-0  13221-4 0  9996,2 49155  69.9996 106.9433 0002837 265.0261  95.0574 14.98331701128482,6950.188,96.107,574.024,570.081,0.0
49155.0,STARLINK-3060,PAYLOAD,2024-01-01 13:57:09,14.98332538,0.0002847,69.9998,106.7752,264.7323,95.3511,2.0708e-05,1.54e-06,0.0,0 STARLINK-3060,1 49155U 21082AB  24001.58136027  .00000154  00000-0  20708-4 0  9997,2 49155  69.9998 106.7752 0002847 264.7323  95.3511 14.98332538128496,6950.185,96.107,574.029,570.071,0.0
49155.0,STARLINK-3060,PAYLOAD,2024-01-01 17:09:25,14.9834107,0.000292,69.9994,106.4389,268.3238,91.7586,-7.482e-05,-9.86e-06,0.0,0 STARLINK-3060,1 49155U 21082AB  24001.71487673 -.00000986  00000-0 -74820-4 0  9997,2 49155  69.9994 106.4389 0002920 268.3238  91.7586 14.98341070128518,6950.159,96.106,574.053,569.994,0.0
49155.0,STARLINK-3060,PAYLOAD,2024-01-02 12:23:02,14.98320903,0.0002817,69.9998,104.4188,267.5088,92.5749,-9.2069e-05,-1.191e-05,0.0,0 STARLINK-3060,1 49155U 21082AB  24002.51599864 -.00001191  00000-0 -92069-4 0  9996,2 49155  69.9998 104.4188 0002817 267.5088  92.5749 14.98320903128631,6950.221,96.108,574.044,570.128,0.0
49155.0,STARLINK-3060,PAYLOAD,2024-01-02 13:59:10,14.9832147,0.0002804,69.9997,104.2505,265.4479,94.6359,-8.8708e-05,-1.151e-05,0.0,0 STARLINK-3060,1 49155U 21082AB  24002.58275808 -.00001151  00000-0 -88708-4 0  9993,2 49155  69.9997 104.2505 0002804 265.4479  94.6359 14.98321470128649,6950.219,96.108,574.033,570.135,0.0
49155.0,STARLINK-3060,PAYLOAD,2024-01-02 15:35:18,14.98322451,0.0002829,69.9997,104.0821,264.4953,95.5883,-7.917e-05,-1.037e-05,0.0,0 STARLINK-3060,1 49155U 21082AB  24002.64951723 -.00001037  00000-0 -79170-4 0  9993,2 49155  69.9997 104.0821 0002829 264.4953  95.5883 14.98322451128654,6950.216,96.107,574.047,570.115,0.0
49155.0,STARLINK-3060,PAYLOAD,2024-01-03 12:25:03,14.98316548,0.0002659,70.0005,101.8951,253.6153,106.4713,-0.00015824,-1.98e-05,0.0,0 STARLINK-3060,1 49155U 21082AB  24003.51740639 -.00001980  00000-0 -15824-3 0  9994,2 49155  70.0005 101.8951 0002659 253.6153 106.4713 14.98316548128787,6950.234,96.108,573.948,570.251,0.0
49155.0,STARLINK-3060,PAYLOAD,2024-01-03 14:01:12,14.98315843,0.0002674,70.0004,101.7268,254.3467,105.7398,-0.00016546,-2.066e-05,0.0,0 STARLINK-3060,1 49155U 21082AB  24003.58416747 -.00002066  00000-0 -16546-3 0  9999,2 49155  70.0004 101.7268 0002674 254.3467 105.7398 14.98315843128798,6950.237,96.108,573.96,570.243,0.0
49155.0,STARLINK-3060,PAYLOAD,2024-01-03 15:37:20,14.98316863,0.0002755,70.0003,101.5584,256.7839,103.3013,-0.00014624,-1.837e-05,0.0,0 STARLINK-3060,1 49155U 21082AB  24003.65092853 -.00001837  00000-0 -14624-3 0  9995,2 49155  70.0003 101.5584 0002755 256.7839 103.3013 14.98316863128808,6950.234,96.108,574.013,570.184,0.0
49155.0,STARLINK-3060,PAYLOAD,2024-01-04 10:50:56,14.98315768,0.000298,69.9991,99.5345,278.0715,82.0106,0.00016274,1.849e-05,0.0,0 STARLINK-3060,1 49155U 21082AB  24004.45203842  .00001849  00000-0  16274-3 0  9990,2 49155  69.9991  99.5345 0002980 278.0715  82.0106 14.98315768128924,6950.237,96.108,574.173,570.031,0.0
49155.0,STARLINK-3060,PAYLOAD,2024-01-04 14:03:12,14.98319396,0.0002669,70.0001,99.1995,271.5189,88.5664,0.00018692,2.137e-05,0.0,0 STARLINK-3060,1 49155U 21082AB  24004.58555658  .00002137  00000-0  18692-3 0  9996,2 49155  70.0001  99.1995 0002669 271.5189  88.5664 14.98319396128946,6950.226,96.108,573.946,570.236,0.0
49155.0,STARLINK-3060,PAYLOAD,2024-01-04 15:39:19,14.98325758,0.0003154,69.9992,99.0323,271.9374,88.1424,0.00020039,2.299e-05,0.0,0 STARLINK-3060,1 49155U 21082AB  24004.65231189  .00002299  00000-0  20039-3 0  9991,2 49155  69.9992  99.0323 0003154 271.9374  88.1424 14.98325758128956,6950.206,96.107,574.263,569.879,0.0
49155.0,STARLINK-3060,PAYLOAD,2024-01-05 12:29:05,14.98318951,0.0003096,69.9995,96.8444,266.7068,93.3737,0.00010308,1.137e-05,0.0,0 STARLINK-3060,1 49155U 21082AB  24005.52020492  .00001137  00000-0  10308-3 0  9999,2 49155  69.9995  96.8444 0003096 266.7068  93.3737 14.98318951129082,6950.227,96.108,574.244,569.94,0.0
49155.0,STARLINK-3060,PAYLOAD,2024-01-05 14:05:13,14.98319779,0.0002977,69.9998,96.6763,265.4612,94.6207,0.00013343,1.499e-05,0.0,0 STARLINK-3060,1 49155U 21082AB  24005.58696404  .00001499  00000-0  13343-3 0  9990,2 49155  69.9998  96.6763 0002977 265.4612  94.6207 14.98319779129091,6950.224,96.108,574.159,570.02,0.0
49155.0,STARLINK-3060,PAYLOAD,2024-01-05 15:41:21,14.98319883,0.000294,70.0,96.5083,265.0186,95.0637,0.00013684,1.54e-05,0.0,0 STARLINK-3060,1 49155U 21082AB  24005.65372431  .00001540  00000-0  13684-3 0  9994,2 49155  70.0000  96.5083 0002940 265.0186  95.0637 14.98319883129104,6950.224,96.108,574.133,570.046,0.0
49155.0,STARLINK-3060,PAYLOAD,2024-01-06 12:31:05,14.9834319,0.000311,69.9993,94.3191,265.229,94.8514,0.00013594,1.53e-05,0.0,0 STARLINK-3060,1 49155U 21082AB  24006.52158745  .00001530  00000-0  13594-3 0  9990,2 49155  69.9993  94.3191 0003110 265.2290  94.8514 14.98343190129239,6950.152,96.106,574.179,569.856,0.0
49155.0,STARLINK-3060,PAYLOAD,2024-01-06 15:43:20,14.98349169,0.000324,69.999,93.9823,268.5508,91.528,0.00015125,1.713e-05,0.0,0 STARLINK-3060,1 49155U 21082AB  24006.65510211  .00001713  00000-0  15125-3 0  9999,2 49155  69.9990  93.9823 0003240 268.5508  91.5280 14.98349169129253,6950.134,96.106,574.25,569.747,0.0
49155.0,STARLINK-3060,PAYLOAD,2024-01-07 09:20:50,14.98327231,0.0003134,69.999,92.1312,267.9359,92.1441,7.3193e-06,-6e-08,0.0,0 STARLINK-3060,1 49155U 21082AB  24007.38947874 -.00000006  00000-0  73193-5 0  9995,2 49155  69.9990  92.1312 0003134 267.9359  92.1441 14.98327231129360,6950.201,96.107,574.245,569.888,0.0
49155.0,STARLINK-3060,PAYLOAD,2024-01-07 14:09:15,14.98323936,0.0003327,69.9988,91.6268,267.7787,92.2991,-3.4336e-05,-5.03e-06,0.0,0 STARLINK-3060,1 49155U 21082AB  24007.58976239 -.00000503  00000-0 -34336-4 0  9992,2 49155  69.9988  91.6268 0003327 267.7787  92.2991 14.98323936129390,6950.212,96.107,574.389,569.764,0.0
49155.0,STARLINK-3060,PAYLOAD,2024-01-07 15:45:23,14.98323391,0.0003168,69.9992,91.4582,268.2382,91.8414,-3.1478e-05,-4.69e-06,0.0,0 STARLINK-3060,1 49155U 21082AB  24007.65652320 -.00000469  00000-0 -31478-4 0  9997,2 49155  69.9992  91.4582 0003168 268.2382  91.8414 14.98323391129404,6950.213,96.107,574.28,569.877,0.0
